[{"OBJECT_NAME":"STARLINK-3915","OBJECT_ID":"2022-051AX","EPOCH":"2026-03-09T09:49:19.409952","MEAN_MOTION":15.08845824,"ECCENTRICITY":0.00012362,"INCLINATION":53.2163,"RA_OF_ASC_NODE":120.3814,"ARG_OF_PERICENTER":90.897,"MEAN_ANOMALY":269.2164,"EPHEMERIS_TYPE":0,"CLASSIFICATION_TYPE":"U","NORAD_CAT_ID":52581,"ELEMENT_SET_NO":999,"REV_AT_EPOCH":21154,"BSTAR":8.9170551e-5,"MEAN_MOTION_DOT":1.132e-5,"MEAN_MOTION_DDOT":0},{"OBJECT_NAME":"YAM-8","OBJECT_ID":"2025-052AW","EPOCH":"2026-03-09T17:32:32.161056","MEAN_MOTION":15.10898939,"ECCENTRICITY":0.00023693,"INCLINATION":97.7023,"RA_OF_ASC_NODE":329.5345,"ARG_OF_PERICENTER":152.6796,"MEAN_ANOMALY":207.4558,"EPHEMERIS_TYPE":0,"CLASSIFICATION_TYPE":"U","NORAD_CAT_ID":63254,"ELEMENT_SET_NO":999,"REV_AT_EPOCH":5424,"BSTAR":0.00047267461,"MEAN_MOTION_DOT":7.81e-5,"MEAN_MOTION_DDOT":0}]
